OBJECT_NAME,OBJECT_ID,EPOCH,MEAN_MOTION,ECCENTRICITY,INCLINATION,RA_OF_ASC_NODE,ARG_OF_PERICENTER,MEAN_ANOMALY,EPHEMERIS_TYPE,CLASSIFICATION_TYPE,NORAD_CAT_ID,ELEMENT_SET_NO,REV_AT_EPOCH,BSTAR,MEAN_MOTION_DOT,MEAN_MOTION_DDOT
PERSEUS-M1,2014-033AF,2026-06-06T15:59:16.611072,14.95601690,.00108608,97.9642,101.6258,341.2925,18.7895,0,U,40039,999,64906,.25013004E-3,.2719E-4,0
POLYITAN-1,2014-033AJ,2026-06-06T20:53:05.003520,15.32894505,.00078354,98.0951,183.1584,171.6009,188.5364,0,U,40042,999,65201,.66512724E-3,.21098E-3,0
TIGRISAT,2014-033AK,2026-06-07T03:27:53.795232,14.85122342,.0050697,97.7825,308.3873,107.2670,253.4101,0,U,40043,999,64413,.28443E-3,.2435E-4,0
AEROCUBE 6A,2014-033AM,2026-06-07T08:07:14.615904,14.98000645,.0039341,97.7225,325.3925,50.4969,309.9721,0,U,40045,999,64514,.56645E-3,.6738E-4,0
AEROCUBE 6B,2014-033AN,2026-06-07T05:12:14.988960,14.99460154,.0038935,97.7234,325.0394,43.1122,317.3139,0,U,40046,999,64526,.60745E-3,.751E-4,0
CANX-4,2014-034C,2026-06-07T05:19:33.182976,14.81247210,.0013799,98.3134,33.1687,47.2839,312.9532,0,U,40055,999,64305,.15813E-3,.1176E-4,0
CANX-5,2014-034D,2026-06-07T05:17:27.789792,14.81264320,.0013794,98.3136,33.2102,47.4594,312.7779,0,U,40056,999,63386,.15855E-3,.118E-4,0
UKUBE-1,2014-037F,2026-06-07T09:12:05.465376,15.13396415,.0002048,98.4242,160.6265,144.2736,215.8630,0,U,40074,999,64707,.49514E-3,.8765E-4,0
BRITE-PL2 (HEWELIUSZ),2014-049B,2026-06-07T06:19:50.180736,14.94560188,.0015105,97.9087,270.1883,138.2185,222.0191,0,U,40119,999,63996,.28361E-3,.3014E-4,0
AEROCUBE 5C,2015-058B,2026-06-07T02:42:20.600352,14.91405632,.0130376,64.7683,293.9303,67.2175,294.2650,0,U,40965,999,36415,.27614E-3,.3078E-4,0
AEROCUBE 7,2015-058C,2026-06-07T01:42:08.032320,14.95660102,.0120099,64.7629,276.5006,65.7312,295.6293,0,U,40966,999,36444,.33773E-3,.4175E-4,0
FOX-1A (AO-85),2015-058D,2026-06-06T14:53:26.022048,14.90916620,.01298912,64.7764,311.8208,60.7292,300.6731,0,U,40967,999,11199,.30157666E-3,.3329E-4,0
SINOD-D 1,2015-058E,2026-06-07T02:48:24.194016,14.95839766,.0118484,64.7760,290.4471,57.0968,304.1480,0,U,40968,999,11515,.33912E-3,.4197E-4,0
SNAP-3 ALICE,2015-058G,2026-06-07T05:32:00.282048,15.57814323,.0031026,64.7499,138.2889,17.6779,342.5437,0,U,40970,999,11533,.15421E-2,.119614E-2,0
LMRST-SAT,2015-058H,2026-06-06T18:35:03.231744,14.90541819,.01315583,64.7770,307.6608,62.6902,298.7533,0,U,40971,999,11200,.30546735E-3,.3354E-4,0
SNAP-3 EDDIE,2015-058J,2026-06-07T05:28:50.309184,15.58986461,.0030744,64.7421,129.0943,21.8813,338.3637,0,U,40972,999,11747,.13603E-2,.110116E-2,0
PROPCUBE 3,2015-058K,2026-06-06T15:13:54.879744,14.94197291,.0123585,64.7695,285.5042,64.1044,297.2748,0,U,40973,999,11322,.33723E-3,.4036E-4,0
BISONSAT,2015-058L,2026-06-07T09:39:37.612224,15.15990070,.0078342,64.7586,205.2734,51.2722,309.5371,0,U,40974,999,11413,.49643E-3,.10158E-3,0
SNAP-3 JIMI,2015-058M,2026-06-06T14:30:23.527872,15.02206649,.01056471,64.7651,253.2536,59.7101,301.4419,0,U,40975,999,11263,.43790818E-3,.635E-4,0
PROPCUBE 1 (FLORA),2015-058N,2026-06-07T04:33:17.950176,14.89174144,.0130291,64.7758,326.2201,64.8488,296.6072,0,U,40976,999,11477,.30603E-3,.3226E-4,0
SINOD-D 3,2015-058P,2026-06-07T03:11:48.583680,14.93950826,.0118809,64.7736,307.2134,62.1322,299.1766,0,U,40977,999,11325,.36433E-3,.4296E-4,0
HORYU-4,2016-012D,2026-06-07T06:47:51.674208,15.88791967,.0002759,30.9849,151.3730,206.2539,153.7981,0,U,41340,999,56923,.10049E-2,.308228E-2,0
RAVAN,2016-067B,2026-06-07T10:48:54.328320,15.53744967,.0005746,97.9897,46.9039,58.2428,301.9382,0,U,41849,999,52618,.7279E-3,.46752E-3,0
CELTEE 1,2016-067C,2026-06-07T03:10:53.616000,15.19583043,.0000623,98.0683,24.0137,91.6149,268.5155,0,U,41850,999,52435,.26868E-3,.5641E-4,0
OPTICUBE 04,2016-067D,2026-06-07T03:17:02.459328,15.09616887,.0016334,98.0710,9.8961,147.5020,212.7216,0,U,41851,999,52365,.20464E-3,.3228E-4,0
AEROCUBE 8D,2016-067E,2026-06-07T04:15:52.327008,15.24257770,.0004087,98.0695,27.5877,149.3086,210.8389,0,U,41852,999,52454,.35601E-3,.8613E-4,0
AEROCUBE 8C,2016-067F,2026-06-07T03:19:40.757088,15.24502258,.0006798,98.0566,24.7861,95.5689,264.6322,0,U,41853,999,52453,.33498E-3,.8161E-4,0
CORVUS BC2,2017-042X,2026-06-06T16:46:05.947680,15.06231398,.00141517,97.4066,319.4581,142.1285,218.0941,0,U,42846,999,48548,.26633895E-3,.3855E-4,0
CORVUS BC1,2017-042Y,2026-06-06T05:30:28.381824,15.06396296,.00133651,97.4093,319.8140,122.2429,238.0096,0,U,42847,999,48544,.25816413E-3,.3751E-4,0
MAKERSAT 0,2017-073D,2026-06-07T04:28:00.660000,15.31738799,.0106176,97.4648,40.6287,309.1965,49.9883,0,U,43016,999,46493,.5394E-3,.19679E-3,0
